STARLINK-11681 [DTC]    
1 63755U 25089E   25128.25002315 -.00090770  00000+0 -37911-3 0  9994
2 63755  43.0056 336.3785 0002529 258.0007 113.5138 15.84805485  2069
STARLINK-11688 [DTC]    
1 63756U 25089F   25128.25002315 -.00086329  00000+0 -36035-3 0  9996
2 63756  43.0050 336.3715 0002094 272.7143 101.1690 15.84802949  1953
STARLINK-11676 [DTC]    
1 63757U 25089G   25127.91668981  .00031383  00000+0  13288-3 0  9999
2 63757  43.0053 338.4181 0001685 252.1866  20.9454 15.84730827  1913
STARLINK-11705 [DTC]    
1 63758U 25089H   25127.91668981  .00036563  00000+0  15436-3 0  9992
2 63758  43.0053 338.4127 0001636 255.9807  19.3248 15.84727896  1977
STARLINK-11703 [DTC]    
1 63759U 25089J   25127.91668981  .00019039  00000+0  81579-4 0  9994
2 63759  43.0054 338.4046 0001906 255.8858  22.6001 15.84746514  2023
STARLINK-11701 [DTC]    
1 63760U 25089K   25128.25002315 -.00091016  00000+0 -38019-3 0  9994
2 63760  43.0049 336.3434 0001763 259.6065 125.4369 15.84807180  2060
STARLINK-11660 [DTC]    
1 63761U 25089L   25128.25002315 -.00084559  00000+0 -35285-3 0  9991
2 63761  43.0050 336.3365 0002204 268.7043 119.0812 15.84801840  2018
STARLINK-11699 [DTC]    
1 63762U 25089M   25128.25002315 -.00110358  00000+0 -46230-3 0  9991
2 63762  43.0050 336.3305 0001908 263.4353 126.7269 15.84815551  2069
